CUTE-1 (CO-55)          
1 27844U 03031E   23318.52459601  .00000492  00000+0  23799-3 0  9998
2 27844  98.6795 323.6111 0010658  54.1306 306.0860 14.22959444 57141
CUBESAT XI-IV (CO-57)   
1 27848U 03031J   23318.51823063  .00000413  00000+0  20494-3 0  9990
2 27848  98.6829 323.9589 0010705  68.2684 291.9633 14.22445403 56877
CUBESAT XI-V            
1 28895U 05043F   23318.64080107  .00002110  00000+0  38991-3 0  9993
2 28895  98.1745  89.8017 0015340 320.9057  39.1037 14.66393581962859
CUTE-1.7+APD II (CO-65) 
1 32785U 08021C   23318.86329670  .00005344  00000+0  50770-3 0  9991
2 32785  97.7278 281.8936 0010724 333.0524  27.0137 14.93861157843301
AAUSAT-II               
1 32788U 08021F   23318.47490884  .00012590  00000+0  81844-3 0  9994
2 32788  97.5772 295.0683 0006292 177.0746 183.0520 15.08126042845725
SEEDS II (CO-66)        
1 32791U 08021J   23318.65687681  .00007461  00000+0  61735-3 0  9999
2 32791  97.6741 287.1092 0008672 262.9190  97.1047 14.99158325844189
SWISSCUBE               
1 35932U 09051B   23318.90282503  .00001499  00000+0  33538-3 0  9990
2 35932  98.4969 192.6891 0006185 263.6763  96.3731 14.58207553751178
BEESAT-1                
1 35933U 09051C   23318.94557589  .00001291  00000+0  29122-3 0  9998
2 35933  98.4894 193.9007 0004513 279.3938  80.6750 14.58054572751257
ITUPSAT1                
1 35935U 09051E   23317.91812765  .00001287  00000+0  29653-3 0  9990
2 35935  98.4994 192.7389 0006849 288.0455  71.9996 14.57068232750762
TISAT 1                 
1 36799U 10035E   23318.92126575  .00006501  00000+0  54998-3 0  9996
2 36799  98.1098 194.4582 0010279 190.5519 169.5488 14.98367779724783
M-CUBED & EXP-1 PRIME   
1 37855U 11061F   23318.10941053  .00036861  00000+0  86935-3 0  9994
2 37855 101.7002   5.7255 0097015 297.7661  61.3756 15.36976350659503
AEROCUBE 4.5A           
1 38767U 12048K   23318.52553607  .00007907  00000+0  51613-3 0  9997
2 38767  64.6629 283.8429 0104875  99.8683 261.4293 15.04035863227979
AEROCUBE 4.5B           
1 38768U 12048L   23318.75065727  .00014961  00000+0  77035-3 0  9998
2 38768  64.6629 221.1556 0083769  90.9135 270.1587 15.13561395228718
STRAND-1                
1 39090U 13009E   23318.54155212  .00000522  00000+0  19516-3 0  9999
2 39090  98.3818 147.7762 0008995 169.2769 190.8610 14.35773557561290
BRITE-AUSTRIA           
1 39091U 13009F   23318.48499322  .00000297  00000+0  11759-3 0  9996
2 39091  98.3852 146.9701 0010363 177.1346 182.9901 14.35603280561317
BEESAT-3                
1 39135U 13015F   23318.35478467  .00155148  00000+0  12049-2 0  9993
2 39135  64.8449 185.5532 0011312 243.6982 116.3009 15.70998172585253
BEESAT-2                
1 39136U 13015G   23318.95517034  .00107115  00000+0  12476-2 0  9999
2 39136  64.8585 199.1783 0020214 255.1655 104.7253 15.60871773585012
NEE-01 PEGASO           
1 39151U 13018B   23318.55848594  .00002961  00000+0  36277-3 0  9992
2 39151  98.0215  69.1837 0016152  26.4927 333.7109 14.83856870569988
ESTCUBE 1               
1 39161U 13021C   23318.92307643  .00002272  00000+0  34423-3 0  9999
2 39161  97.8570  26.8581 0008767 197.0571 163.0345 14.75079915565349
POPACS 1                
1 39268U 13055D   23318.50361857  .00025029  00000+0  50540-3 0  9998
2 39268  80.9907  35.7186 0467176  58.1722 306.4086 14.77092756528548
POPACS 2                
1 39269U 13055E   23318.86731622  .00015736  00000+0  39349-3 0  9997
2 39269  81.0046 111.5748 0586045 255.5432  98.0074 14.47814555524341
POPACS 3                
1 39270U 13055F   23318.81858763  .00009310  00000+0  26413-3 0  9999
2 39270  81.0081 155.7827 0650373  19.9085 342.6247 14.31507966502098
ZACUBE-1 (TSHEPISOSAT)  
1 39417U 13066B   23318.83330288  .00004239  00000+0  47295-3 0  9999
2 39417  97.7068 275.5067 0054204 149.7254 210.7112 14.86466333539568
WNISAT-1                
1 39423U 13066H   23318.54818926  .00001212  00000+0  24337-3 0  9994
2 39423  97.6822 165.2745 0171102 326.3197  32.7219 14.54550563529299
TRITON-1                
1 39427U 13066M   23318.85686373  .00003763  00000+0  55367-3 0  9991
2 39427  97.8383 239.1313 0107670  54.9266 306.1982 14.72080388534518
DELFI-N3XT              
1 39428U 13066N   23318.52466234  .00006178  00000+0  85128-3 0  9999
2 39428  97.8356 238.1911 0109127  65.9200 295.3380 14.74480448534278
GOMX-1                  
1 39430U 13066Q   23318.94139745  .00002442  00000+0  42294-3 0  9999
2 39430  97.7574 201.1976 0142333 215.6622 143.5009 14.62721341531389
CUBEBUG-2 (LO-74)       
1 39440U 13066AA  23318.39349114  .00004295  00000+0  53917-3 0  9994
2 39440  97.7896 262.4766 0071406 258.1736 101.1462 14.80868286536371
NEE-02 KRYSAOR          
1 39441U 13066AB  23318.31757915  .00003035  00000+0  40426-3 0  9991
2 39441  97.8000 258.9351 0075003 277.4368  81.8325 14.78450740536025
FUNCUBE-1 (AO-73)       
1 39444U 13066AE  23318.47348465  .00004339  00000+0  46062-3 0  9997
2 39444  97.6925 277.8688 0052557 134.6737 225.8782 14.88531022537985
UWE-3                   
1 39446U 13066AG  23318.38627311  .00003225  00000+0  38511-3 0  9992
2 39446  97.7546 268.5628 0062620 206.1066 153.6987 14.83513611536680
BRITE-CA1 (TORONTO)     
1 40020U 14033L   23318.36211225  .00001279  00000+0  21680-3 0  9994
2 40020  97.8478  98.6672 0085628  61.5037 299.4759 14.68525936503181
DUCHIFAT-1              
1 40021U 14033M   23318.85256799  .00009125  00000+0  71703-3 0  9993
2 40021  98.0741 288.0805 0014853 104.5204 255.7668 15.01039824511768
NANOSATC-BR1            
1 40024U 14033Q   23318.44478875  .00008204  00000+0  69045-3 0  9995
2 40024  98.0485 277.7196 0012278 130.9583 229.2703 14.98458169510897
QB50P1                  
1 40025U 14033R   23318.82015407  .00006843  00000+0  61630-3 0  9995
2 40025  98.0156 268.5774 0011871 144.2710 215.9307 14.95882780510643
QB50P2                  
1 40032U 14033Y   23318.36190163  .00004926  00000+0  45612-3 0  9997
2 40032  97.9825 261.1060 0010980 145.5278 214.6656 14.94941110510399
PERSEUS-M2              
1 40037U 14033AD  23318.76175890  .00002230  00000+0  24174-3 0  9992
2 40037  97.9137 244.1921 0013450 178.1929 181.9339 14.89162319509759
PERSEUS-M1              
1 40039U 14033AF  23318.74871458  .00002486  00000+0  27073-3 0  9999
2 40039  97.8968 240.8154 0013293 177.5866 182.5417 14.88861024509618
POLYITAN-1              
1 40042U 14033AJ  23318.44444832  .00006755  00000+0  58613-3 0  9999
2 40042  98.0276 270.5627 0013338 137.4288 222.7969 14.97331492510505
TIGRISAT                
1 40043U 14033AK  23318.93290748  .00002592  00000+0  36271-3 0  9990
2 40043  97.6742 126.5259 0055687 284.3899  75.1135 14.77334291505667
AEROCUBE 6A             
1 40045U 14033AM  23318.91995691  .00005665  00000+0  73242-3 0  9992
2 40045  97.6578 136.6012 0052083 266.8103  92.7150 14.80332408505917
AEROCUBE 6B             
1 40046U 14033AN  23318.46909772  .00005040  00000+0  64092-3 0  9998
2 40046  97.6535 134.7143 0050714 264.7161  94.8264 14.81128753505887
UKUBE-1                 
1 40074U 14037F   23318.70209676  .00005986  00000+0  62428-3 0  9996
2 40074  98.3372 231.1730 0005689  65.5294 294.6515 14.90156744506650
BRITE-PL2 (HEWELIUSZ)   
1 40119U 14049B   23318.50823822  .00002215  00000+0  25043-3 0  9996
2 40119  97.8843  54.4736 0016236 358.6994   1.4177 14.87418362500501
GRIFEX                  
1 40379U 15003D   23318.66868659  .00085873  00000+0  96643-3 0  9994
2 40379  99.0856 293.8750 0058184 104.9682 255.8020 15.60162552486667
CP10 (EXOCUBE)          
1 40380U 15003E   23318.84044452  .00033627  00000+0  67048-3 0  9990
2 40380  99.0951 280.7469 0079395 146.4543 214.1764 15.43378720485862
EXACTVIEW 9             
1 40936U 15052G   23315.26137088  .00003703  00000+0  39934-3 0  9997
2 40936   6.0016 115.5435 0010358 220.5702 139.3653 14.79323149439061
AEROCUBE 5C             
1 40965U 15058B   23318.94771007  .00005158  00000+0  53746-3 0  9991
2 40965  64.7719 301.1487 0172332  17.4580 343.2349 14.80487702225151
AEROCUBE 7              
1 40966U 15058C   23318.30912422  .00006371  00000+0  64495-3 0  9991
2 40966  64.7703 298.5076 0169121  17.3587 343.3204 14.81697978225099
GALASSIA                
1 41170U 15077E   23318.88368427  .00229543  00000+0  16889-2 0  9994
2 41170  14.9826 144.7586 0004870  60.2757 299.8056 15.70969178439486
VELOX-II                
1 41171U 15077F   23318.55460887  .00030265  00000+0  79660-3 0  9990
2 41171  14.9912 282.5332 0004822 185.3099 174.7174 15.36356923438287
HORYU-4                 
1 41340U 16012D   23318.92561041  .00009792  00000+0  56939-3 0  9998
2 41340  31.0044 291.9299 0011077 310.9129  49.0550 15.10743128425510
E-ST@R-II               
1 41459U 16025D   23318.88816513  .00060091  00000+0  11995-2 0  9996
2 41459  98.1614 176.6445 0080047 291.0870  68.1830 15.43156759416028
RAVAN                   
1 41849U 16067B   23318.40401552  .00009692  00000+0  62131-3 0  9995
2 41849  98.0505 119.5663 0015549  43.1989 317.0455 15.08647574383392
CELTEE 1                
1 41850U 16067C   23318.66845969  .00004896  00000+0  36511-3 0  9993
2 41850  98.0793 112.9484 0000968 132.9777 227.1529 15.03378006383010
OPTICUBE 04             
1 41851U 16067D   23318.40038941  .00002358  00000+0  19024-3 0  9991
2 41851  98.0549 110.0460 0015869  67.6289 292.6613 15.00830449382854
AEROCUBE 8D             
1 41852U 16067E   23318.38994647  .00006551  00000+0  47816-3 0  9992
2 41852  98.0848 111.9581 0006016 107.8884 252.2996 15.04038238382927
AEROCUBE 8C             
1 41853U 16067F   23318.39285275  .00006155  00000+0  45049-3 0  9990
2 41853  98.0651 111.1008 0009350  47.8213 312.3804 15.03942801382913
PROMETHEUS 2-1          
1 41854U 16067G   23318.40268067  .00011152  00000+0  70069-3 0  9996
2 41854  98.0835 115.5542 0015797  70.4244 289.8687 15.09340314383114
